id,name,lon,lat,road_address,jibun_address,url,category_name,group_code
12273573,천안농협하나로마트 광덕점,127.110835413776,36.6989922640726,충남 천안시 동남구 광덕면 신흥리3길 27,충남 천안시 동남구 광덕면 신흥리 300-2,http://place.map.kakao.com/12273573,"가정,생활 > 슈퍼마켓 > 대형슈퍼 > 하나로마트",MT1
21128087,이마트 천안점,127.12699660303585,36.796068212457484,충남 천안시 서북구 충무로 187,충남 천안시 서북구 쌍용동 191,http://place.map.kakao.com/21128087,"가정,생활 > 대형마트 > 이마트",MT1
8177399,홈플러스 천안신방점,127.120547705862,36.7870800081516,충남 천안시 동남구 신촌1길 23,충남 천안시 동남구 신방동 784-9,http://place.map.kakao.com/8177399,"가정,생활 > 대형마트 > 홈플러스",MT1
669475065,노브랜드 천안신방2점,127.12001832070749,36.78885754039136,충남 천안시 동남구 신촌로 8,충남 천안시 동남구 신방동 784-11,http://place.map.kakao.com/669475065,"가정,생활 > 슈퍼마켓 > 대형슈퍼 > 노브랜드",MT1
397747185,노브랜드 천안신방점,127.13351744891239,36.773325954276544,충남 천안시 동남구 통정10로 43-31,충남 천안시 동남구 신방동 1895,http://place.map.kakao.com/397747185,"가정,생활 > 슈퍼마켓 > 대형슈퍼 > 노브랜드",MT1
201955785,천안축산농협하나로마트 청당점,127.143004573542,36.7773402128221,충남 천안시 동남구 광풍로 1775,충남 천안시 동남구 청당동 369-2,http://place.map.kakao.com/201955785,"가정,생활 > 슈퍼마켓 > 대형슈퍼 > 하나로마트",MT1
494509451,GS더프레시 천안불당시티점,127.09942209283615,36.796120590191485,충남 천안시 서북구 공원로 176,충남 천안시 서북구 불당동 1280,http://place.map.kakao.com/494509451,"가정,생활 > 슈퍼마켓 > 대형슈퍼 > GS더프레시",MT1
11789948,홈플러스익스프레스 천안신방점,127.128409259859,36.7878647617972,충남 천안시 동남구 서부대로 219,충남 천안시 동남구 신방동 925,http://place.map.kakao.com/11789948,"가정,생활 > 슈퍼마켓 > 대형슈퍼 > 홈플러스익스프레스",MT1
1406899881,국민마트농수축산직판장,127.14418937545,36.7795411083987,충남 천안시 동남구 광풍로 1801,충남 천안시 동남구 청당동 389-35,http://place.map.kakao.com/1406899881,"가정,생활 > 대형마트",MT1
1656330377,농협하나로유통 천안농협 로컬푸드 직매장용곡점,127.137854936781,36.7897789691052,충남 천안시 동남구 일봉로 101,충남 천안시 동남구 용곡동 214-4,http://place.map.kakao.com/1656330377,"가정,생활 > 대형마트",MT1
432126572,이마트 천안점_문화,127.127099448662,36.7959248256538,충남 천안시 서북구 충무로 187,충남 천안시 서북구 쌍용동 191,http://place.map.kakao.com/432126572,"가정,생활 > 대형마트",MT1
26842495,이마트 천안서북점,127.122202265722,36.8384452103302,충남 천안시 서북구 삼성대로 20,충남 천안시 서북구 백석동 1047,http://place.map.kakao.com/26842495,"가정,생활 > 대형마트 > 이마트",MT1
25624781,코스트코코리아 천안점,127.105347021173,36.8426749128385,충남 천안시 서북구 3공단6로 77,충남 천안시 서북구 차암동 438,http://place.map.kakao.com/25624781,"가정,생활 > 대형마트 > 코스트코코리아",MT1
17110900,롯데마트 성정점,127.14001749247444,36.82622277143053,충남 천안시 서북구 성정두정로 1,충남 천안시 서북구 성정동 1486,http://place.map.kakao.com/17110900,"가정,생활 > 대형마트 > 롯데마트",MT1
1177378085,노브랜드 천안백석점,127.12407539811485,36.83069104716818,충남 천안시 서북구 한들3로 78-3,충남 천안시 서북구 백석동 946,http://place.map.kakao.com/1177378085,"가정,생활 > 슈퍼마켓 > 대형슈퍼 > 노브랜드",MT1
287474368,노브랜드 천안불당점,127.1030664396186,36.81663579510143,충남 천안시 서북구 불당19로 95,충남 천안시 서북구 불당동 1545,http://place.map.kakao.com/287474368,"가정,생활 > 슈퍼마켓 > 대형슈퍼 > 노브랜드",MT1
1052225896,노브랜드 천안성성점,127.12975152450615,36.83971678196179,충남 천안시 서북구 성성8로 2-11,충남 천안시 서북구 성성동 731,http://place.map.kakao.com/1052225896,"가정,생활 > 슈퍼마켓 > 대형슈퍼 > 노브랜드",MT1
2123918028,천안농협하나로마트 성성점,127.140285828816,36.8473353792645,충남 천안시 서북구 업성수변로 94,충남 천안시 서북구 성성동 45-10,http://place.map.kakao.com/2123918028,"가정,생활 > 슈퍼마켓 > 대형슈퍼 > 하나로마트",MT1
11840130,GS더프레시 천안두정점,127.139844429116,36.8339851148353,충남 천안시 서북구 두정로 203,충남 천안시 서북구 두정동 1263,http://place.map.kakao.com/11840130,"가정,생활 > 슈퍼마켓 > 대형슈퍼 > GS더프레시",MT1
1004450103,천안농협하나로마트 불당점,127.10913742489195,36.81887504248858,충남 천안시 서북구 불당25로 200,충남 천안시 서북구 불당동 1488,http://place.map.kakao.com/1004450103,"가정,생활 > 슈퍼마켓 > 대형슈퍼 > 하나로마트",MT1
763041769,이마트에브리데이 천안불당점,127.10547888506554,36.80479398573301,충남 천안시 서북구 불당25로 8,충남 천안시 서북구 불당동 1846,http://place.map.kakao.com/763041769,"가정,생활 > 슈퍼마켓 > 대형슈퍼 > 이마트에브리데이",MT1
26989769,이마트에브리데이 천안차암점,127.1037293276144,36.84109939974618,충남 천안시 서북구 3공단6로 58-8,충남 천안시 서북구 차암동 435,http://place.map.kakao.com/26989769,"가정,생활 > 슈퍼마켓 > 대형슈퍼 > 이마트에브리데이",MT1
20239061,롯데프레시&델리 두정2점,127.12826947653623,36.830679567938894,충남 천안시 서북구 오성로 9,충남 천안시 서북구 두정동 591,http://place.map.kakao.com/20239061,"가정,생활 > 슈퍼마켓 > 대형슈퍼 > 롯데슈퍼프레시",MT1
12743581,홈플러스익스프레스 천안불당점,127.10977576971436,36.806745509104026,충남 천안시 서북구 불당4로 39-36,충남 천안시 서북구 불당동 843,http://place.map.kakao.com/12743581,"가정,생활 > 슈퍼마켓 > 대형슈퍼 > 홈플러스익스프레스",MT1
11840009,롯데슈퍼프레시 백석점,127.12366874166706,36.82249111617785,충남 천안시 서북구 백석4길 21,충남 천안시 서북구 백석동 889,http://place.map.kakao.com/11840009,"가정,생활 > 슈퍼마켓 > 대형슈퍼 > 롯데슈퍼프레시",MT1
18576930,홈플러스익스프레스 천안성정점,127.13709889003495,36.82320745957464,충남 천안시 서북구 쌍용대로 290,충남 천안시 서북구 성정동 647-5,http://place.map.kakao.com/18576930,"가정,생활 > 슈퍼마켓 > 대형슈퍼 > 홈플러스익스프레스",MT1
2069166371,GS더프레시 천안불당점,127.105082839309,36.8134648262103,충남 천안시 서북구 불당26로 77,충남 천안시 서북구 불당동 1548,http://place.map.kakao.com/2069166371,"가정,생활 > 슈퍼마켓 > 대형슈퍼 > GS더프레시",MT1
11789949,홈플러스익스프레스 천안쌍용점,127.11905181773467,36.80212649844998,충남 천안시 서북구 월봉로 128,충남 천안시 서북구 쌍용동 1954,http://place.map.kakao.com/11789949,"가정,생활 > 슈퍼마켓 > 대형슈퍼 > 홈플러스익스프레스",MT1
1029547079,GS더프레시 천안쌍용점,127.119386735153,36.8070975951224,충남 천안시 서북구 봉서산샛길 37,충남 천안시 서북구 쌍용동 2131,http://place.map.kakao.com/1029547079,"가정,생활 > 슈퍼마켓 > 대형슈퍼 > GS더프레시",MT1
1806105820,GS더프레시 천안차암점,127.10885276905326,36.846585256100184,충남 천안시 서북구 스마일시티2로 2,충남 천안시 서북구 차암동 543,http://place.map.kakao.com/1806105820,"가정,생활 > 슈퍼마켓 > 대형슈퍼 > GS더프레시",MT1
1323908770,충청마트 성정점,127.14220105508156,36.82200749860385,충남 천안시 서북구 서부15길 41,충남 천안시 서북구 성정동 658-1,http://place.map.kakao.com/1323908770,"가정,생활 > 대형마트",MT1
1119812727,천안배원예농협하나로마트,127.13428930529,36.9112302983288,충남 천안시 서북구 성환읍 연암율금로 508,충남 천안시 서북구 성환읍 매주리 304-18,http://place.map.kakao.com/1119812727,"가정,생활 > 슈퍼마켓 > 대형슈퍼 > 하나로마트",MT1
12273480,성환농협하나로마트,127.128963562817,36.9178682562591,충남 천안시 서북구 성환읍 성환12길 9-1,충남 천안시 서북구 성환읍 성환리 449-139,http://place.map.kakao.com/12273480,"가정,생활 > 슈퍼마켓 > 대형슈퍼 > 하나로마트",MT1
1500070086,한마음마트,127.130103166709,36.9122333697995,충남 천안시 서북구 성환읍 성환4길 12,충남 천안시 서북구 성환읍 매주리 316,http://place.map.kakao.com/1500070086,"가정,생활 > 대형마트",MT1
27583012,하이웨이클럽 성환점,127.12768175895118,36.913706583901615,충남 천안시 서북구 성환읍 성환1로 213,충남 천안시 서북구 성환읍 성환리 449-333,http://place.map.kakao.com/27583012,"가정,생활 > 대형마트",MT1
26011287,천안농협하나로마트 행정점,127.15705750625,36.6883754385682,충남 천안시 동남구 광덕면 차령고개로 1053,충남 천안시 동남구 광덕면 행정리 68-2,http://place.map.kakao.com/26011287,"가정,생활 > 슈퍼마켓 > 대형슈퍼 > 하나로마트",MT1
1287120221,노브랜드 천안청당점,127.15738669204433,36.78556274854817,충남 천안시 동남구 청수14로 102,충남 천안시 동남구 청당동 552,http://place.map.kakao.com/1287120221,"가정,생활 > 슈퍼마켓 > 대형슈퍼 > 노브랜드",MT1
22353640,천안축협하나로마트 본점,127.15363305941926,36.782457009101,충남 천안시 동남구 청수11로 12,충남 천안시 동남구 청당동 511,http://place.map.kakao.com/22353640,"가정,생활 > 슈퍼마켓 > 대형슈퍼 > 하나로마트",MT1
12273546,동천안농협하나로마트,127.20343954453945,36.77127782170143,충남 천안시 동남구 목천읍 신계4길 4,충남 천안시 동남구 목천읍 신계리 308,http://place.map.kakao.com/12273546,"가정,생활 > 슈퍼마켓 > 대형슈퍼 > 하나로마트",MT1
882302439,GS더프레시 천안극동점,127.149680750145,36.792239132991,충남 천안시 동남구 풍세로 933,충남 천안시 동남구 다가동 30,http://place.map.kakao.com/882302439,"가정,생활 > 슈퍼마켓 > 대형슈퍼 > GS더프레시",MT1
26842497,이마트 천안터미널점,127.15606072853035,36.81948773775687,충남 천안시 동남구 만남로 43,충남 천안시 동남구 신부동 354-1,http://place.map.kakao.com/26842497,"가정,생활 > 대형마트 > 이마트",MT1
12132931,홈플러스 천안점,127.164912080201,36.7992819097909,충남 천안시 동남구 천안대로 574,충남 천안시 동남구 구성동 50,http://place.map.kakao.com/12132931,"가정,생활 > 대형마트 > 홈플러스",MT1
341570407,메가마트 메가도매센터 천안점,127.15196359307537,36.861681913727566,충남 천안시 서북구 천안대로 1348,충남 천안시 서북구 신당동 452-3,http://place.map.kakao.com/341570407,"가정,생활 > 대형마트 > 메가마트",MT1
12273403,천안농협 하나로마트,127.14860722205496,36.8130246167125,충남 천안시 동남구 대흥로 277,충남 천안시 동남구 성황동 59-1,http://place.map.kakao.com/12273403,"가정,생활 > 슈퍼마켓 > 대형슈퍼 > 하나로마트",MT1
11840025,롯데슈퍼프레시 신부점,127.15848432546409,36.81528851746564,충남 천안시 동남구 신부7길 5-1,충남 천안시 동남구 신부동 84-1,http://place.map.kakao.com/11840025,"가정,생활 > 슈퍼마켓 > 대형슈퍼 > 롯데슈퍼프레시",MT1
12273461,직산농협하나로마트,127.15324467495081,36.879860885581124,충남 천안시 서북구 직산읍 직산로 33,충남 천안시 서북구 직산읍 삼은리 72-55,http://place.map.kakao.com/12273461,"가정,생활 > 슈퍼마켓 > 대형슈퍼 > 하나로마트",MT1
8009663,GS더프레시 천안점,127.15836955033495,36.805598130894495,충남 천안시 동남구 충절로 148,충남 천안시 동남구 원성동 126-3,http://place.map.kakao.com/8009663,"가정,생활 > 슈퍼마켓 > 대형슈퍼 > GS더프레시",MT1
22874933,성거농협 하나로마트,127.201214536059,36.8721290990081,충남 천안시 서북구 성거읍 성거길 76,충남 천안시 서북구 성거읍 천흥리 432,http://place.map.kakao.com/22874933,"가정,생활 > 슈퍼마켓 > 대형슈퍼 > 하나로마트",MT1
1936078214,GS더프레시 천안신부점,127.16110464860061,36.816425350387426,충남 천안시 동남구 신부8길 21,충남 천안시 동남구 신부동 988,http://place.map.kakao.com/1936078214,"가정,생활 > 슈퍼마켓 > 대형슈퍼 > GS더프레시",MT1
628095188,GS더프레시 두정역점,127.14621469357,36.8319751918752,충남 천안시 서북구 1공단4길 7,충남 천안시 서북구 두정동 71-48,http://place.map.kakao.com/628095188,"가정,생활 > 슈퍼마켓 > 대형슈퍼 > GS더프레시",MT1
1304707687,GS더프레시 신부중앙점,127.155949873271,36.8223011444872,충남 천안시 동남구 방죽안3길 36,충남 천안시 동남구 신부동 971,http://place.map.kakao.com/1304707687,"가정,생활 > 슈퍼마켓 > 대형슈퍼 > GS더프레시",MT1
2015385629,와마트,127.15390355922244,36.83478685339197,충남 천안시 서북구 두정공원2길 14,충남 천안시 서북구 두정동 397-10,http://place.map.kakao.com/2015385629,"가정,생활 > 대형마트",MT1
1252771706,금천식자재마트 성거점,127.20147649008665,36.87663866036476,충남 천안시 서북구 성거읍 수청2길 13,충남 천안시 서북구 성거읍 저리 57-75,http://place.map.kakao.com/1252771706,"가정,생활 > 대형마트",MT1
24532105,아라리오,127.15784472017356,36.81932859014486,충남 천안시 동남구 만남로 43,충남 천안시 동남구 신부동 354-1,http://place.map.kakao.com/24532105,"가정,생활 > 대형마트",MT1
1632326193,L마트 직산점,127.15355869887,36.8775960161188,충남 천안시 서북구 직산읍 직산로 3,충남 천안시 서북구 직산읍 삼은리 417,http://place.map.kakao.com/1632326193,"가정,생활 > 대형마트",MT1
973652280,뉴팡마켓,127.149591359785,36.8643368671456,충남 천안시 서북구 업성3길 189,충남 천안시 서북구 신당동 636,http://place.map.kakao.com/973652280,"가정,생활 > 대형마트",MT1
12273574,직산농협하나로마트 군동점,127.1632593383066,36.90105669408523,충남 천안시 서북구 직산읍 직산안길 47,충남 천안시 서북구 직산읍 군서리 96-2,http://place.map.kakao.com/12273574,"가정,생활 > 슈퍼마켓 > 대형슈퍼 > 하나로마트",MT1
12273688,동천안농협하나로마트 목천점,127.235339009554,36.7848825887089,충남 천안시 동남구 목천읍 서리1길 41-4,충남 천안시 동남구 목천읍 서리 100-11,http://place.map.kakao.com/12273688,"가정,생활 > 슈퍼마켓 > 대형슈퍼 > 하나로마트",MT1
12273490,동천안농협하나로마트 성남점,127.235385704978,36.7429878065543,충남 천안시 동남구 성남면 신사대화로 135,충남 천안시 동남구 성남면 신사리 422-1,http://place.map.kakao.com/12273490,"가정,생활 > 슈퍼마켓 > 대형슈퍼 > 하나로마트",MT1
12273547,동천안농협하나로마트 북면점,127.273148832424,36.8233187919701,충남 천안시 동남구 북면 위례성로 680,충남 천안시 동남구 북면 오곡리 336-4,http://place.map.kakao.com/12273547,"가정,생활 > 슈퍼마켓 > 대형슈퍼 > 하나로마트",MT1
1927453954,입장농협하나로마트 본점,127.221770980599,36.9110127001828,충남 천안시 서북구 입장면 석재길 3,충남 천안시 서북구 입장면 하장리 288-1,http://place.map.kakao.com/1927453954,"가정,생활 > 슈퍼마켓 > 대형슈퍼 > 하나로마트",MT1
12273475,아우내농협하나로마트,127.300406952539,36.7633508448197,충남 천안시 동남구 병천면 아우내순대길 68,충남 천안시 동남구 병천면 병천리 99-4,http://place.map.kakao.com/12273475,"가정,생활 > 슈퍼마켓 > 대형슈퍼 > 하나로마트",MT1
10188067,나사렛대학교,127.11868767152407,36.79488552252493,충남 천안시 서북구 월봉로 48,충남 천안시 서북구 쌍용동 456,http://place.map.kakao.com/10188067,"교육,학문 > 학교 > 대학교",SC4
8627430,한국기술교육대학교 제2캠퍼스,127.14343754744,36.8419321957832,충남 천안시 서북구 과수원길 18,충남 천안시 서북구 부대동 415-1,http://place.map.kakao.com/8627430,"교육,학문 > 학교 > 대학교",SC4
8249968,남서울대학교,127.14309428867358,36.90736783652364,충남 천안시 서북구 성환읍 대학로 91,충남 천안시 서북구 성환읍 매주리 21,http://place.map.kakao.com/8249968,"교육,학문 > 학교 > 대학교",SC4
7946659,선문대학교 천안캠퍼스,127.16425442604869,36.77045077492434,충남 천안시 동남구 천안대로 277,충남 천안시 동남구 삼룡동 381-7,http://place.map.kakao.com/7946659,"교육,학문 > 학교 > 대학교",SC4
10132356,국제뇌교육종합대학원대학교,127.1955973528764,36.79273298165389,충남 천안시 동남구 목천읍 교천지산길 284-31,충남 천안시 동남구 목천읍 지산리 167,http://place.map.kakao.com/10132356,"교육,학문 > 학교 > 대학교",SC4
7887373,백석대학교,127.18589952500963,36.83927099016649,충남 천안시 동남구 백석대학로 1-11,충남 천안시 동남구 안서동 115,http://place.map.kakao.com/7887373,"교육,학문 > 학교 > 대학교",SC4
8221448,단국대학교 천안캠퍼스,127.16955361633022,36.83807532813902,충남 천안시 동남구 단대로 119,충남 천안시 동남구 안서동 522,http://place.map.kakao.com/8221448,"교육,학문 > 학교 > 대학교",SC4
8658679,호서대학교 천안캠퍼스,127.18349338259668,36.827419772005705,충남 천안시 동남구 호서대길 12,충남 천안시 동남구 안서동 268,http://place.map.kakao.com/8658679,"교육,학문 > 학교 > 대학교",SC4
9683468,국립공주대학교 천안캠퍼스,127.15093333537096,36.85101236046876,충남 천안시 서북구 천안대로 1223-24,충남 천안시 서북구 부대동 275,http://place.map.kakao.com/9683468,"교육,학문 > 학교 > 대학교",SC4
25052198,상명대학교 천안캠퍼스,127.17832701965428,36.83367680902326,충남 천안시 동남구 상명대길 31,충남 천안시 동남구 안서동 300,http://place.map.kakao.com/25052198,"교육,학문 > 학교 > 대학교",SC4
11218034,한국기술교육대학교 제1캠퍼스,127.28252982310103,36.76458140716308,충남 천안시 동남구 병천면 충절로 1600,충남 천안시 동남구 병천면 가전리 307,http://place.map.kakao.com/11218034,"교육,학문 > 학교 > 대학교",SC4
1119066322,천안쌍용요양병원,127.125220887449,36.7948247571646,충남 천안시 서북구 충무로 167-12,충남 천안시 서북구 쌍용동 494-3,http://place.map.kakao.com/1119066322,"의료,건강 > 병원 > 노인,요양병원",HP8
12880788,천안충무병원,127.13158713887151,36.79737974801952,충남 천안시 서북구 다가말3길 8,충남 천안시 서북구 쌍용동 542-3,http://place.map.kakao.com/12880788,"의료,건강 > 병원 > 종합병원",HP8
1040665508,순천향대학교 부속 천안병원,127.135969905471,36.8034041590226,충남 천안시 동남구 순천향6길 31,충남 천안시 동남구 봉명동 216-8,http://place.map.kakao.com/1040665508,"의료,건강 > 병원 > 대학병원",HP8
1297796316,천안재활병원,127.134986271077,36.8175761431643,충남 천안시 서북구 쌍용대로 225,충남 천안시 서북구 성정동 1022,http://place.map.kakao.com/1297796316,"의료,건강 > 병원 > 재활의학과",HP8
17192359,백석요양병원,127.127604492852,36.8214158097259,충남 천안시 서북구 백석5길 4,충남 천안시 서북구 백석동 836,http://place.map.kakao.com/17192359,"의료,건강 > 병원 > 노인,요양병원",HP8
2118042888,다나힐요양병원 재활의학과,127.107215030022,36.8861532441111,충남 천안시 서북구 직산읍 석양길 4,충남 천안시 서북구 직산읍 양당리 216-4,http://place.map.kakao.com/2118042888,"의료,건강 > 병원 > 재활의학과",HP8
10763668,충청남도천안의료원,127.1791525314296,36.775662953392526,충남 천안시 동남구 충절로 537,충남 천안시 동남구 삼룡동 41-13,http://place.map.kakao.com/10763668,"의료,건강 > 병원 > 종합병원",HP8
818368543,프라미스요양병원,127.165064435738,36.7674020780303,충남 천안시 동남구 천안대로 215,충남 천안시 동남구 삼룡동 381-22,http://place.map.kakao.com/818368543,"의료,건강 > 병원 > 노인,요양병원",HP8
26301521,천안요양병원,127.163818718421,36.7909823724871,충남 천안시 동남구 삼룡천3길 10,충남 천안시 동남구 구성동 289-1,http://place.map.kakao.com/26301521,"의료,건강 > 병원 > 노인,요양병원",HP8
2107457543,브라운요양병원,127.199930272753,36.7682587249127,충남 천안시 동남구 목천읍 충절로 794,충남 천안시 동남구 목천읍 신계리 394-3,http://place.map.kakao.com/2107457543,"의료,건강 > 병원 > 노인,요양병원",HP8
1703351950,로고스요양병원,127.157663930405,36.7945663058825,충남 천안시 동남구 청수로 123-11,충남 천안시 동남구 구성동 313-1,http://place.map.kakao.com/1703351950,"의료,건강 > 병원 > 노인,요양병원",HP8
8216226,단국대학교의과대학부속병원,127.17236266226318,36.841909097538014,충남 천안시 동남구 망향로 201,충남 천안시 동남구 안서동 522,http://place.map.kakao.com/8216226,"의료,건강 > 병원 > 대학병원",HP8
19292219,단국대학교 치과대학병원,127.17235066360628,36.837561280349476,,충남 천안시 동남구 안서동 522,http://place.map.kakao.com/19292219,"의료,건강 > 병원 > 치과",HP8
1908122728,선한이웃요양병원,127.177430632167,36.7993828402966,충남 천안시 동남구 정골2길 91,충남 천안시 동남구 구성동 87-1,http://place.map.kakao.com/1908122728,"의료,건강 > 병원 > 노인,요양병원",HP8
1312874640,메디움천안요양병원,127.178318089819,36.8109878198198,충남 천안시 동남구 유량로 180,충남 천안시 동남구 유량동 326,http://place.map.kakao.com/1312874640,"의료,건강 > 병원 > 노인,요양병원",HP8
22570959,가야요양병원,127.150438980702,36.7989694874474,충남 천안시 동남구 영성로 7,충남 천안시 동남구 영성동 170-2,http://place.map.kakao.com/22570959,"의료,건강 > 병원 > 노인,요양병원",HP8
27505104,한사랑요양병원,127.148104035816,36.808376416301,충남 천안시 동남구 대흥로 228,충남 천안시 동남구 대흥동 80,http://place.map.kakao.com/27505104,"의료,건강 > 병원 > 노인,요양병원",HP8
12466088,세인트요양병원,127.159760560933,36.7984815446691,충남 천안시 동남구 구성2길 11,충남 천안시 동남구 구성동 476-2,http://place.map.kakao.com/12466088,"의료,건강 > 병원 > 노인,요양병원",HP8
8088579,천안시립노인전문병원,127.226867855996,36.8253300503125,충남 천안시 동남구 목천읍 삼방로 735,충남 천안시 동남구 목천읍 송전리 431,http://place.map.kakao.com/8088579,"의료,건강 > 병원 > 노인,요양병원",HP8
78523074,한아름재가복지원,127.318157512566,36.7950526812682,충남 천안시 동남구 병천면 봉항로 407-1,충남 천안시 동남구 병천면 매성리 521,http://place.map.kakao.com/78523074,"의료,건강 > 병원 > 노인,요양병원",HP8
25659473,천안우리요양병원,127.121437392481,36.7942699900644,충남 천안시 서북구 쌍용19로 21,충남 천안시 서북구 쌍용동 415-1,http://place.map.kakao.com/25659473,"의료,건강 > 병원 > 노인,요양병원",HP8
1952548373,천안퍼스트힐요양병원,127.12277312714413,36.823858395372355,충남 천안시 서북구 백석로 99,충남 천안시 서북구 백석동 173-2,http://place.map.kakao.com/1952548373,"의료,건강 > 병원 > 노인,요양병원",HP8
2005228928,천안성심요양병원,127.13714422681666,36.83353770664654,충남 천안시 서북구 원두정3길 37,충남 천안시 서북구 두정동 944,http://place.map.kakao.com/2005228928,"의료,건강 > 병원 > 노인,요양병원",HP8
8560926,큰사랑요양병원,127.13297932167374,36.819727550023,충남 천안시 서북구 도원4길 7,충남 천안시 서북구 성정동 954,http://place.map.kakao.com/8560926,"의료,건강 > 병원 > 노인,요양병원",HP8
9471383,메디케어요양병원,127.110217109421,36.8113083268149,충남 천안시 서북구 검은들1길 20,충남 천안시 서북구 불당동 705,http://place.map.kakao.com/9471383,"의료,건강 > 병원 > 노인,요양병원",HP8
1204819135,다나힐요양병원,127.107438572116,36.88557273426,충남 천안시 서북구 직산읍 석양길 4,충남 천안시 서북구 직산읍 양당리 216-10,http://place.map.kakao.com/1204819135,"의료,건강 > 요양,간병 > 요양원",HP8
793521919,하나은행365 호두나무요양병원장례식장,127.157699740053,36.7945446317066,충남 천안시 동남구 청수로 123-11,충남 천안시 동남구 구성동 313-1,http://place.map.kakao.com/793521919,"금융,보험 > 금융서비스 > 은행 > ATM",HP8
683291846,LG유플러스 두정동 우체국사거리점,127.13303948799314,36.830528166750646,충남 천안시 서북구 오성로 51,충남 천안시 서북구 두정동 785,http://place.map.kakao.com/683291846,"서비스,산업 > 정보통신 > LG유플러스 > LGT대리점",PO3
8115163,가산보건진료소,127.193932662027,36.9374922485674,충남 천안시 서북구 입장면 톨미길 17,충남 천안시 서북구 입장면 가산리 346-3,http://place.map.kakao.com/8115163,"의료,건강 > 보건소 > 보건진료소",PO3
11394903,광덕면의용소방대,127.110869061021,36.7006034487601,충남 천안시 동남구 광덕면 신흥리1길 148,충남 천안시 동남구 광덕면 신흥리 309-24,http://place.map.kakao.com/11394903,"사회,공공기관 > 행정기관 > 소방서 > 119지역대",PO3
8698778,광덕면행정복지센터,127.111255672868,36.6986422345682,충남 천안시 동남구 광덕면 신흥리3길 33,충남 천안시 동남구 광덕면 신흥리 296-1,http://place.map.kakao.com/8698778,"사회,공공기관 > 지방행정기관 > 행정복지센터 > 면행정복지센터",PO3
8184188,광덕우체국,127.11206514677319,36.698919923839235,충남 천안시 동남구 광덕면 신흥리4길 50,충남 천안시 동남구 광덕면 신흥리 298-8,http://place.map.kakao.com/8184188,"사회,공공기관 > 행정기관 > 과학기술정보통신부 > 우체국",PO3
21264691,광덕풍세파출소,127.111703530877,36.6988076227209,충남 천안시 동남구 광덕면 신흥리4길 46,충남 천안시 동남구 광덕면 신흥리 297-2,http://place.map.kakao.com/21264691,"사회,공공기관 > 행정기관 > 경찰서 > 파출소",PO3
1405101333,구성119안전센터,127.16534361705,36.7998688355407,충남 천안시 동남구 천안대로 580,충남 천안시 동남구 구성동 51-1,http://place.map.kakao.com/1405101333,"사회,공공기관 > 행정기관 > 소방서 > 119안전센터",PO3
21660372,군서보건진료소,127.163366223521,36.9006690757001,충남 천안시 서북구 직산읍 군서4길 2,충남 천안시 서북구 직산읍 군서리 96-17,http://place.map.kakao.com/21660372,"의료,건강 > 보건소 > 보건진료소",PO3
21268404,남산지구대,127.15392106934776,36.79875056750292,충남 천안시 동남구 충무로 437,충남 천안시 동남구 원성동 601-9,http://place.map.kakao.com/21268404,"사회,공공기관 > 행정기관 > 경찰서 > 지구대",PO3
8885810,남서울대학교 우편취급국,127.14364533081,36.9098136458764,충남 천안시 서북구 성환읍 대학로 91,충남 천안시 서북구 성환읍 매주리 21,http://place.map.kakao.com/8885810,"사회,공공기관 > 행정기관 > 과학기술정보통신부 > 우체국 > 우편취급국",PO3
1705910263,대전가정법원 천안지원,127.15458952545248,36.785684462458846,충남 천안시 동남구 청수14로 77,충남 천안시 동남구 청당동 476,http://place.map.kakao.com/1705910263,"사회,공공기관 > 사법기관 > 법원 > 가정법원",PO3
26883443,대전지방검찰청 천안지청,127.153001989136,36.7850926807986,충남 천안시 동남구 청수14로 67,충남 천안시 동남구 청당동 475,http://place.map.kakao.com/26883443,"사회,공공기관 > 행정기관 > 검찰청 > 지방검찰청",PO3
26883444,대전지방법원 천안지원,127.154585219795,36.7857718761331,충남 천안시 동남구 청수14로 77,충남 천안시 동남구 청당동 476,http://place.map.kakao.com/26883444,"사회,공공기관 > 사법기관 > 법원 > 지방법원",PO3
9782782,덕전보건진료소,127.224215564774,36.8183208602045,충남 천안시 동남구 목천읍 유왕골2길 10,충남 천안시 동남구 목천읍 덕전리 231,http://place.map.kakao.com/9782782,"의료,건강 > 보건소 > 보건진료소",PO3
1405140398,독립119안전센터,127.23060529210385,36.7765024915483,충남 천안시 동남구 목천읍 독립기념관로 1,충남 천안시 동남구 목천읍 남화리 230-1,http://place.map.kakao.com/1405140398,"사회,공공기관 > 행정기관 > 소방서 > 119안전센터",PO3
21659507,동남구보건소,127.151275875625,36.8074532910862,충남 천안시 동남구 버들로 34,충남 천안시 동남구 문화동 112-14,http://place.map.kakao.com/21659507,"의료,건강 > 보건소",PO3
814433669,동남구청,127.15167568011962,36.80675351986665,충남 천안시 동남구 옛시청길 39,충남 천안시 동남구 문화동 112-1,http://place.map.kakao.com/814433669,"사회,공공기관 > 지방행정기관 > 구청",PO3
23971631,동면119지역대,127.34413731676,36.7757830953301,충남 천안시 동남구 동면 동산1길 13,충남 천안시 동남구 동면 화계리 181-1,http://place.map.kakao.com/23971631,"사회,공공기관 > 행정기관 > 소방서 > 119지역대",PO3
7842169,동면보건지소,127.344321230498,36.7758294209864,충남 천안시 동남구 동면 동산1길 15-1,충남 천안시 동남구 동면 화계리 181-3,http://place.map.kakao.com/7842169,"의료,건강 > 보건소 > 보건지소",PO3
26119790,동면치안센터,127.346836353719,36.7771521556862,충남 천안시 동남구 동면 동산1길 39,충남 천안시 동남구 동면 동산리 560-1,http://place.map.kakao.com/26119790,"사회,공공기관 > 행정기관 > 경찰서 > 치안센터",PO3
8258787,동면행정복지센터 임시청사,127.34845209604863,36.77873429119016,충남 천안시 동남구 동면 동산1길 63,충남 천안시 동남구 동면 동산리 551-2,http://place.map.kakao.com/8258787,"사회,공공기관 > 지방행정기관 > 행정복지센터 > 면행정복지센터",PO3
17484895,동천안우체국,127.15544526869559,36.78393428469682,충남 천안시 동남구 청수5로 10,충남 천안시 동남구 청당동 549,http://place.map.kakao.com/17484895,"사회,공공기관 > 행정기관 > 과학기술정보통신부 > 우체국",PO3
1405038388,두정119안전센터,127.146267345981,36.8278354396007,충남 천안시 서북구 1공단2길 13,충남 천안시 서북구 성정동 1568,http://place.map.kakao.com/1405038388,"사회,공공기관 > 행정기관 > 소방서 > 119안전센터",PO3
9440356,두정지구대,127.131964584124,36.8331975432833,충남 천안시 서북구 오성9길 40,충남 천안시 서북구 두정동 707,http://place.map.kakao.com/9440356,"사회,공공기관 > 행정기관 > 경찰서 > 지구대",PO3
13539885,매성보건진료소,127.318461675598,36.8111456626698,충남 천안시 동남구 병천면 봉항로 586,충남 천안시 동남구 병천면 매성리 279-1,http://place.map.kakao.com/13539885,"의료,건강 > 보건소 > 보건진료소",PO3
795066374,목천보건지소,127.23479822669,36.7853549394024,충남 천안시 동남구 목천읍 서리1길 41-9,충남 천안시 동남구 목천읍 서리 95-2,http://place.map.kakao.com/795066374,"의료,건강 > 보건소 > 보건지소",PO3
20025784,목천북면파출소,127.2357244673386,36.78563876030573,충남 천안시 동남구 목천읍 서리1길 50,충남 천안시 동남구 목천읍 서리 105-2,http://place.map.kakao.com/20025784,"사회,공공기관 > 행정기관 > 경찰서 > 파출소",PO3
11280638,목천우체국,127.2354753082121,36.785491471267875,충남 천안시 동남구 목천읍 서리1길 49,충남 천안시 동남구 목천읍 서리 99-1,http://place.map.kakao.com/11280638,"사회,공공기관 > 행정기관 > 과학기술정보통신부 > 우체국",PO3
26011202,목천읍119지역대,127.238596915411,36.7820177680076,충남 천안시 동남구 목천읍 동평3길 157,충남 천안시 동남구 목천읍 동리 165-15,http://place.map.kakao.com/26011202,"사회,공공기관 > 행정기관 > 소방서 > 119지역대",PO3
7885072,목천읍행정복지센터,127.234684979642,36.7849559698672,충남 천안시 동남구 목천읍 서리1길 41-7,충남 천안시 동남구 목천읍 서리 93-1,http://place.map.kakao.com/7885072,"사회,공공기관 > 지방행정기관 > 행정복지센터 > 읍행정복지센터",PO3
7879541,문성동행정복지센터,127.150238368757,36.8109941683799,충남 천안시 동남구 문화로 15,충남 천안시 동남구 문화동 39-4,http://place.map.kakao.com/7879541,"사회,공공기관 > 지방행정기관 > 행정복지센터 > 동행정복지센터",PO3
8093696,문성파출소,127.149558180884,36.8069940948302,충남 천안시 동남구 옛시청길 21,충남 천안시 동남구 문화동 165-2,http://place.map.kakao.com/8093696,"사회,공공기관 > 행정기관 > 경찰서 > 파출소",PO3
13539883,미죽보건진료소,127.15006186620391,36.737721060087246,충남 천안시 동남구 풍세면 미죽2길 6,충남 천안시 동남구 풍세면 미죽리 424-6,http://place.map.kakao.com/13539883,"의료,건강 > 보건소 > 보건진료소",PO3
10399781,발산보건진료소,127.287011674256,36.719971631031,충남 천안시 동남구 수신면 발산1길 132,충남 천안시 동남구 수신면 발산리 203-1,http://place.map.kakao.com/10399781,"의료,건강 > 보건소 > 보건진료소",PO3
9018807,백석대학교 우편취급국,127.184533851207,36.8401273656911,충남 천안시 동남구 백석대학로 1-1,충남 천안시 동남구 안서동 115,http://place.map.kakao.com/9018807,"사회,공공기관 > 행정기관 > 과학기술정보통신부 > 우체국 > 우편취급국",PO3
17809066,백석동행정복지센터,127.11510920689621,36.819748894490615,충남 천안시 서북구 번영로 208,충남 천안시 서북구 백석동 251,http://place.map.kakao.com/17809066,"사회,공공기관 > 지방행정기관 > 행정복지센터 > 동행정복지센터",PO3
1405123880,병천119안전센터,127.301033108086,36.7642323546603,충남 천안시 동남구 병천면 아우내순대길 78,충남 천안시 동남구 병천면 병천리 112,http://place.map.kakao.com/1405123880,"사회,공공기관 > 행정기관 > 소방서 > 119안전센터",PO3
10382515,병천동면파출소,127.29761427265524,36.7634948325558,충남 천안시 동남구 병천면 충절로 1729,충남 천안시 동남구 병천면 병천리 160-3,http://place.map.kakao.com/10382515,"사회,공공기관 > 행정기관 > 경찰서 > 파출소",PO3
10387077,병천면행정복지센터,127.302587862467,36.7665640994854,충남 천안시 동남구 병천면 병천2로 57,충남 천안시 동남구 병천면 병천리 360-1,http://place.map.kakao.com/10387077,"사회,공공기관 > 지방행정기관 > 행정복지센터 > 면행정복지센터",PO3
8333925,병천보건지소,127.30203873561608,36.76648439449597,충남 천안시 동남구 병천면 병천2로 57-1,충남 천안시 동남구 병천면 병천리 360-1,http://place.map.kakao.com/8333925,"의료,건강 > 보건소 > 보건지소",PO3
7900700,병천우체국,127.29726313685788,36.76276400501691,충남 천안시 동남구 병천면 충절로 1732,충남 천안시 동남구 병천면 병천리 319-2,http://place.map.kakao.com/7900700,"사회,공공기관 > 행정기관 > 과학기술정보통신부 > 우체국",PO3
11057160,봉명동행정복지센터,127.13943451163375,36.80577007050382,충남 천안시 동남구 봉정로 39,충남 천안시 동남구 봉명동 45-9,http://place.map.kakao.com/11057160,"사회,공공기관 > 지방행정기관 > 행정복지센터 > 동행정복지센터",PO3
8372635,부성1동행정복지센터,127.152210937846,36.8427719304848,충남 천안시 서북구 부대중앙길 51,충남 천안시 서북구 부대동 133-21,http://place.map.kakao.com/8372635,"사회,공공기관 > 지방행정기관 > 행정복지센터 > 동행정복지센터",PO3
1080754887,부성2동주민자치센터,127.12815451724697,36.83870747298518,충남 천안시 서북구 노태산로 133,충남 천안시 서북구 성성동 191-3,http://place.map.kakao.com/1080754887,"사회,공공기관 > 지방행정기관 > 행정복지센터 > 동행정복지센터",PO3
21763483,부성2동행정복지센터,127.12813982292224,36.838635400320456,충남 천안시 서북구 노태산로 133,충남 천안시 서북구 성성동 191-3,http://place.map.kakao.com/21763483,"사회,공공기관 > 지방행정기관 > 행정복지센터 > 동행정복지센터",PO3
23971424,북면119지역대,127.27274052961089,36.82733685998013,충남 천안시 동남구 북면 위례성로 724-1,충남 천안시 동남구 북면 오곡리 399-1,http://place.map.kakao.com/23971424,"사회,공공기관 > 행정기관 > 소방서 > 119지역대",PO3
11566559,북면치안센터,127.272920086564,36.8245556349987,충남 천안시 동남구 북면 위례성로 693,충남 천안시 동남구 북면 오곡리 369,http://place.map.kakao.com/11566559,"사회,공공기관 > 행정기관 > 경찰서 > 치안센터",PO3
7902878,북면행정복지센터,127.273262167455,36.8274528060516,충남 천안시 동남구 북면 위례성로 724,충남 천안시 동남구 북면 오곡리 399-1,http://place.map.kakao.com/7902878,"사회,공공기관 > 지방행정기관 > 행정복지센터 > 면행정복지센터",PO3
1405034473,불당119안전센터,127.107715914991,36.8178310515156,충남 천안시 서북구 불당23로 62,충남 천안시 서북구 불당동 1518,http://place.map.kakao.com/1405034473,"사회,공공기관 > 행정기관 > 소방서 > 119안전센터",PO3
22515558,불당1동행정복지센터,127.11372362771,36.8059344038356,충남 천안시 서북구 봉서산로 64,충남 천안시 서북구 불당동 796,http://place.map.kakao.com/22515558,"사회,공공기관 > 지방행정기관 > 행정복지센터 > 동행정복지센터",PO3
1549180859,불당2동행정복지센터,127.10850542756535,36.81737977892481,충남 천안시 서북구 불당25로 182,충남 천안시 서북구 불당동 1531,http://place.map.kakao.com/1549180859,"사회,공공기관 > 지방행정기관 > 행정복지센터 > 동행정복지센터",PO3
1624631204,불당지구대,127.10798487641826,36.81781278540636,충남 천안시 서북구 불당23로 66,충남 천안시 서북구 불당동 1519,http://place.map.kakao.com/1624631204,"사회,공공기관 > 행정기관 > 경찰서 > 지구대",PO3
1404943834,서부119안전센터,127.138787301473,36.8122552199745,충남 천안시 서북구 양지18길 22,충남 천안시 서북구 성정동 738-4,http://place.map.kakao.com/1404943834,"사회,공공기관 > 행정기관 > 소방서 > 119안전센터",PO3
8597503,서북구보건소,127.11488694693728,36.815021888227314,충남 천안시 서북구 번영로 156,충남 천안시 서북구 불당동 234-1,http://place.map.kakao.com/8597503,"의료,건강 > 보건소",PO3
11140134,서북구청,127.154969215539,36.8784484280331,충남 천안시 서북구 성거읍 봉주로 75,충남 천안시 서북구 성거읍 신월리 343-1,http://place.map.kakao.com/11140134,"사회,공공기관 > 지방행정기관 > 구청",PO3
1405021050,성거119안전센터,127.207866577272,36.8833057000464,충남 천안시 서북구 성거읍 천흥8길 11,충남 천안시 서북구 성거읍 천흥리 315-7,http://place.map.kakao.com/1405021050,"사회,공공기관 > 행정기관 > 소방서 > 119안전센터",PO3
7940843,성거보건지소,127.19912792052774,36.877987960241654,충남 천안시 서북구 성거읍 봉주로 469,충남 천안시 서북구 성거읍 저리 57-26,http://place.map.kakao.com/7940843,"의료,건강 > 보건소 > 보건지소",PO3
7950809,성거우체국,127.20053043736777,36.87215188161346,충남 천안시 서북구 성거읍 성거길 73,충남 천안시 서북구 성거읍 송남리 16-1,http://place.map.kakao.com/7950809,"사회,공공기관 > 행정기관 > 과학기술정보통신부 > 우체국",PO3
9170372,성거읍행정복지센터,127.199166201756,36.8780437642569,충남 천안시 서북구 성거읍 봉주로 469,충남 천안시 서북구 성거읍 저리 57-26,http://place.map.kakao.com/9170372,"사회,공공기관 > 지방행정기관 > 행정복지센터 > 읍행정복지센터",PO3
21264772,성거파출소,127.201134454254,36.8723851470326,충남 천안시 서북구 성거읍 성거길 80,충남 천안시 서북구 성거읍 천흥리 430-3,http://place.map.kakao.com/21264772,"사회,공공기관 > 행정기관 > 경찰서 > 파출소",PO3
10473231,성남119지역대,127.23245481341974,36.74350900779302,충남 천안시 동남구 성남면 신사대화로 115-9,충남 천안시 동남구 성남면 신사리 444-1,http://place.map.kakao.com/10473231,"사회,공공기관 > 행정기관 > 소방서 > 119지역대",PO3
11132074,성남면전담의용소방대,127.232453693731,36.7435090099801,충남 천안시 동남구 성남면 신사대화로 115-9,충남 천안시 동남구 성남면 신사리 444-1,http://place.map.kakao.com/11132074,"사회,공공기관 > 행정기관 > 소방서 > 119지역대",PO3
1993558241,성남면행정복지센터 임시청사,127.232973313942,36.7435359285486,충남 천안시 동남구 성남면 신사대화로 115-8,충남 천안시 동남구 성남면 신사리 431-7,http://place.map.kakao.com/1993558241,"사회,공공기관 > 지방행정기관 > 행정복지센터 > 동행정복지센터",PO3
8378127,성남보건지소,127.23597397322375,36.74276316396546,충남 천안시 동남구 성남면 신사대화로 141,충남 천안시 동남구 성남면 신사리 313-2,http://place.map.kakao.com/8378127,"의료,건강 > 보건소 > 보건지소",PO3
26146205,성남치안센터,127.237273352584,36.7422126998297,충남 천안시 동남구 성남면 신사대화로 153,충남 천안시 동남구 성남면 신사리 341-2,http://place.map.kakao.com/26146205,"사회,공공기관 > 행정기관 > 경찰서 > 치안센터",PO3
809155054,성정1동 주민자치센터별관,127.141209704963,36.8131787094551,충남 천안시 서북구 봉정로 123,충남 천안시 서북구 성정동 732-7,http://place.map.kakao.com/809155054,"사회,공공기관 > 지방행정기관 > 행정복지센터 > 동행정복지센터",PO3
770672770,성정1동행정복지센터,127.141447076813,36.8179326819152,충남 천안시 서북구 성정8길 5,충남 천안시 서북구 성정동 694-9,http://place.map.kakao.com/770672770,"사회,공공기관 > 지방행정기관 > 행정복지센터 > 동행정복지센터",PO3
1995389684,성정2동행정복지센터,127.1398734360698,36.819744871643145,충남 천안시 서북구 서부8길 29,충남 천안시 서북구 성정동 684-1,http://place.map.kakao.com/1995389684,"사회,공공기관 > 지방행정기관 > 행정복지센터 > 동행정복지센터",PO3
20589713,성정동우체국 주차장,127.133748255535,36.8300669056545,충남 천안시 서북구 서부대로 706,충남 천안시 서북구 성정동 1116,http://place.map.kakao.com/20589713,"교통,수송 > 교통시설 > 주차장",PO3
10847362,성정지구대,127.14449678741292,36.810216416042216,충남 천안시 서북구 천안천4길 46,충남 천안시 서북구 와촌동 106-81,http://place.map.kakao.com/10847362,"사회,공공기관 > 행정기관 > 경찰서 > 지구대",PO3
1404946288,성환119안전센터,127.131161968955,36.9276589333214,충남 천안시 서북구 성환읍 성환1로 395,충남 천안시 서북구 성환읍 성환리 167-5,http://place.map.kakao.com/1404946288,"사회,공공기관 > 행정기관 > 소방서 > 119안전센터",PO3
8405800,성환신가보건진료소,127.115058984548,36.9522141335517,충남 천안시 서북구 성환읍 가동길 14-4,충남 천안시 서북구 성환읍 신가리 371-62,http://place.map.kakao.com/8405800,"의료,건강 > 보건소 > 보건진료소",PO3
9839602,성환우체국,127.13013637948033,36.91659102768119,충남 천안시 서북구 성환읍 성환11길 20,충남 천안시 서북구 성환읍 성환리 355-4,http://place.map.kakao.com/9839602,"사회,공공기관 > 행정기관 > 과학기술정보통신부 > 우체국",PO3
9141256,성환읍의용소방대,127.131170954194,36.927662527786,충남 천안시 서북구 성환읍 성환1로 395,충남 천안시 서북구 성환읍 성환리 167-5,http://place.map.kakao.com/9141256,"사회,공공기관 > 행정기관 > 소방서",PO3
1991637035,성환읍행정복지센터,127.134368848863,36.9181938680331,충남 천안시 서북구 성환읍 성환13길 7,충남 천안시 서북구 성환읍 성환리 274-1,http://place.map.kakao.com/1991637035,"사회,공공기관 > 지방행정기관 > 행정복지센터 > 읍행정복지센터",PO3
21267896,성환파출소,127.128540155043,36.9170072689815,충남 천안시 서북구 성환읍 성환11길 5,충남 천안시 서북구 성환읍 성환리 449-77,http://place.map.kakao.com/21267896,"사회,공공기관 > 행정기관 > 경찰서 > 파출소",PO3
11400171,수신119지역대,127.280517635898,36.7280972031947,충남 천안시 동남구 수신면 수신로 398,충남 천안시 동남구 수신면 속창리 54-6,http://place.map.kakao.com/11400171,"사회,공공기관 > 행정기관 > 소방서 > 119지역대",PO3
26248359,수신면주민자치센터,127.28049148985,36.7282955113448,충남 천안시 동남구 수신면 수신로 400,충남 천안시 동남구 수신면 속창리 54-6,http://place.map.kakao.com/26248359,"사회,공공기관 > 지방행정기관 > 행정복지센터 > 동행정복지센터",PO3
8391446,수신면행정복지센터,127.280963043926,36.7311311260335,충남 천안시 동남구 수신면 수신로 431,충남 천안시 동남구 수신면 속창리 126-2,http://place.map.kakao.com/8391446,"사회,공공기관 > 지방행정기관 > 행정복지센터 > 면행정복지센터",PO3
7964950,수신보건지소,127.281808243816,36.7308155380153,충남 천안시 동남구 수신면 수신로 436,충남 천안시 동남구 수신면 속창리 53-1,http://place.map.kakao.com/7964950,"의료,건강 > 보건소 > 보건지소",PO3
21264817,수신성남파출소,127.28122303202953,36.73120260162406,충남 천안시 동남구 수신면 수신로 433,충남 천안시 동남구 수신면 속창리 127-5,http://place.map.kakao.com/21264817,"사회,공공기관 > 행정기관 > 경찰서 > 파출소",PO3
8428799,수신의용소방대,127.280517596566,36.72808638984,충남 천안시 동남구 수신면 수신로 398,충남 천안시 동남구 수신면 속창리 54-6,http://place.map.kakao.com/8428799,"사회,공공기관 > 행정기관 > 소방서 > 119지역대",PO3
7959480,수향보건진료소,127.145404905301,36.950043471842,충남 천안시 서북구 성환읍 지족향길 55,충남 천안시 서북구 성환읍 수향리 274-4,http://place.map.kakao.com/7959480,"의료,건강 > 보건소 > 보건진료소",PO3
7972946,신방동행정복지센터,127.122481782342,36.7859137927941,충남 천안시 동남구 천안천변길 129-41,충남 천안시 동남구 신방동 719-3,http://place.map.kakao.com/7972946,"사회,공공기관 > 지방행정기관 > 행정복지센터 > 동행정복지센터",PO3
399083356,신방파출소,127.133487463386,36.775412972569,충남 천안시 동남구 통정4로 38,충남 천안시 동남구 신방동 1549,http://place.map.kakao.com/399083356,"사회,공공기관 > 행정기관 > 경찰서 > 파출소",PO3
10523918,신안동행정복지센터,127.16028161403912,36.81730954960603,충남 천안시 동남구 신부3길 16-6,충남 천안시 동남구 신부동 985,http://place.map.kakao.com/10523918,"사회,공공기관 > 지방행정기관 > 행정복지센터 > 동행정복지센터",PO3
21267923,신안파출소,127.15975398511627,36.824981397047964,,충남 천안시 동남구 신부동 431-6,http://place.map.kakao.com/21267923,"사회,공공기관 > 행정기관 > 경찰서 > 파출소",PO3
1404941027,쌍용119안전센터,127.118309757688,36.7975892374848,충남 천안시 서북구 월봉로 78,충남 천안시 서북구 쌍용동 1524-1,http://place.map.kakao.com/1404941027,"사회,공공기관 > 행정기관 > 소방서 > 119안전센터",PO3
10606264,쌍용1동행정복지센터,127.1305025913375,36.804030248599,충남 천안시 서북구 미라10길 21,충남 천안시 서북구 쌍용동 1030,http://place.map.kakao.com/10606264,"사회,공공기관 > 지방행정기관 > 행정복지센터 > 동행정복지센터",PO3
11115931,쌍용2동행정복지센터,127.123188478789,36.7962722645347,충남 천안시 서북구 쌍용14길 70,충남 천안시 서북구 쌍용동 183-1,http://place.map.kakao.com/11115931,"사회,공공기관 > 지방행정기관 > 행정복지센터 > 동행정복지센터",PO3
8414876,쌍용3동행정복지센터,127.119196499244,36.8029337497668,충남 천안시 서북구 월봉로 138,충남 천안시 서북구 쌍용동 1950,http://place.map.kakao.com/8414876,"사회,공공기관 > 지방행정기관 > 행정복지센터 > 동행정복지센터",PO3
10769860,쌍용지구대,127.119206240268,36.803434758144,충남 천안시 서북구 쌍용12길 3,충남 천안시 서북구 쌍용동 1925,http://place.map.kakao.com/10769860,"사회,공공기관 > 행정기관 > 경찰서 > 지구대",PO3
22543718,안궁보건진료소,127.136664187294,36.9617607924927,충남 천안시 서북구 성환읍 안궁4길 84,충남 천안시 서북구 성환읍 안궁리 397-1,http://place.map.kakao.com/22543718,"의료,건강 > 보건소 > 보건진료소",PO3
7997689,양당보건진료소,127.112984546744,36.8764016014869,충남 천안시 서북구 직산읍 양전길 50,충남 천안시 서북구 직산읍 양당리 275-8,http://place.map.kakao.com/7997689,"의료,건강 > 보건소 > 보건진료소",PO3
957704651,우체국365코너,127.178107722875,36.8328913728562,충남 천안시 동남구 상명대길 31,충남 천안시 동남구 안서동 300,http://place.map.kakao.com/957704651,"금융,보험 > 금융서비스 > 은행 > ATM",PO3
10699261,원성1동행정복지센터,127.15837780819506,36.807159294433006,충남 천안시 동남구 충절로 130,충남 천안시 동남구 원성동 135-20,http://place.map.kakao.com/10699261,"사회,공공기관 > 지방행정기관 > 행정복지센터 > 동행정복지센터",PO3
711261913,원성2동주민자치센터,127.15879487443256,36.801283493449056,충남 천안시 동남구 충절로 196,충남 천안시 동남구 원성동 559-49,http://place.map.kakao.com/711261913,"사회,공공기관 > 지방행정기관 > 행정복지센터 > 동행정복지센터",PO3
10700238,원성2동행정복지센터,127.160833435763,36.801428536531,충남 천안시 동남구 고재15길 15,충남 천안시 동남구 원성동 569-6,http://place.map.kakao.com/10700238,"사회,공공기관 > 지방행정기관 > 행정복지센터 > 동행정복지센터",PO3
21267983,원성파출소,127.15916589750961,36.80459277953256,충남 천안시 동남구 충절로 161,충남 천안시 동남구 원성동 510-12,http://place.map.kakao.com/21267983,"사회,공공기관 > 행정기관 > 경찰서 > 파출소",PO3
27034578,일봉동주민자치센터,127.135366142049,36.7990741039621,충남 천안시 동남구 차돌고개4길 18,충남 천안시 동남구 다가동 378-1,http://place.map.kakao.com/27034578,"사회,공공기관 > 지방행정기관 > 행정복지센터 > 동행정복지센터",PO3
1510121277,일봉동행정복지센터,127.1419695110606,36.801019114939514,충남 천안시 동남구 신용로 48,충남 천안시 동남구 다가동 368-8,http://place.map.kakao.com/1510121277,"사회,공공기관 > 지방행정기관 > 행정복지센터 > 동행정복지센터",PO3
17530518,일봉지구대,127.13553877519799,36.800388629949104,충남 천안시 동남구 차돌로 44,충남 천안시 동남구 다가동 374-8,http://place.map.kakao.com/17530518,"사회,공공기관 > 행정기관 > 경찰서 > 지구대",PO3
1404888593,입장119안전센터,127.227259106515,36.9090343392393,충남 천안시 서북구 입장면 망향로 1107,충남 천안시 서북구 입장면 하장리 362,http://place.map.kakao.com/1404888593,"사회,공공기관 > 행정기관 > 소방서 > 119안전센터",PO3
10073073,입장기로보건진료소,127.24310647660889,36.90932736241167,충남 천안시 서북구 입장면 기로2길 6,충남 천안시 서북구 입장면 기로리 354-49,http://place.map.kakao.com/10073073,"의료,건강 > 보건소 > 보건진료소",PO3
8541319,입장면행정복지센터,127.221165722117,36.9128088075409,충남 천안시 서북구 입장면 입장로 129,충남 천안시 서북구 입장면 하장리 77-1,http://place.map.kakao.com/8541319,"사회,공공기관 > 지방행정기관 > 행정복지센터 > 면행정복지센터",PO3
394420768,입장보건지소 관리팀,127.221110239513,36.9126368019033,충남 천안시 서북구 입장면 입장로 129,충남 천안시 서북구 입장면 하장리 77-1,http://place.map.kakao.com/394420768,"의료,건강 > 보건소 > 보건지소",PO3
8030649,입장우체국,127.22092274822889,36.91455107361944,충남 천안시 서북구 입장면 하장4길 14,충남 천안시 서북구 입장면 하장리 50-1,http://place.map.kakao.com/8030649,"사회,공공기관 > 행정기관 > 과학기술정보통신부 > 우체국",PO3
21265008,입장파출소,127.226975079983,36.9070957270866,충남 천안시 서북구 입장면 망향로 1088,충남 천안시 서북구 입장면 효계리 43-14,http://place.map.kakao.com/21265008,"사회,공공기관 > 행정기관 > 경찰서 > 파출소",PO3
10778302,중앙동행정복지센터,127.15260595587,36.800058874519,충남 천안시 동남구 원성천1길 17,충남 천안시 동남구 영성동 62-6,http://place.map.kakao.com/10778302,"사회,공공기관 > 지방행정기관 > 행정복지센터 > 동행정복지센터",PO3
1404857420,직산119안전센터,127.165673041843,36.8965208364438,충남 천안시 서북구 직산읍 직산로 246,충남 천안시 서북구 직산읍 군동리 45-1,http://place.map.kakao.com/1404857420,"사회,공공기관 > 행정기관 > 소방서 > 119안전센터",PO3
8076950,직산보건지소,127.154516195142,36.8785138970968,충남 천안시 서북구 성거읍 봉주로 75,충남 천안시 서북구 성거읍 신월리 343-1,http://place.map.kakao.com/8076950,"의료,건강 > 보건소 > 보건지소",PO3
8098585,직산우체국,127.15128123599243,36.878474806253074,충남 천안시 서북구 직산읍 삼은3길 17,충남 천안시 서북구 직산읍 삼은리 72-44,http://place.map.kakao.com/8098585,"사회,공공기관 > 행정기관 > 과학기술정보통신부 > 우체국",PO3
451645960,직산읍 행정복지센터,127.150433811142,36.8787570251716,충남 천안시 서북구 직산읍 삼은4길 2,충남 천안시 서북구 직산읍 삼은리 76-189,http://place.map.kakao.com/451645960,"사회,공공기관 > 지방행정기관 > 행정복지센터 > 읍행정복지센터",PO3
1084949653,직산파출소,127.147759085937,36.8784107539946,충남 천안시 서북구 직산읍 삼은2길 27,충남 천안시 서북구 직산읍 삼은리 76-135,http://place.map.kakao.com/1084949653,"사회,공공기관 > 행정기관 > 경찰서 > 파출소",PO3
1404888105,차암119안전센터,127.116113165836,36.8625720811296,충남 천안시 서북구 직산읍 4산단2길 32,충남 천안시 서북구 직산읍 신갈리 254,http://place.map.kakao.com/1404888105,"사회,공공기관 > 행정기관 > 소방서 > 119안전센터",PO3
23150613,천안단국대우편취급국,127.16994108873114,36.83737912113387,충남 천안시 동남구 단대로 119,충남 천안시 동남구 안서동 522,http://place.map.kakao.com/23150613,"사회,공공기관 > 행정기관 > 과학기술정보통신부 > 우체국 > 우편취급국",PO3
8090898,천안대흥동우편취급국,127.14877241216,36.8109383402498,충남 천안시 동남구 대흥로 258,충남 천안시 동남구 대흥동 19,http://place.map.kakao.com/8090898,"사회,공공기관 > 행정기관 > 과학기술정보통신부 > 우체국 > 우편취급국",PO3
8538489,천안동남경찰서,127.156079627735,36.7868332391499,충남 천안시 동남구 청수6로 73,충남 천안시 동남구 청당동 481,http://place.map.kakao.com/8538489,"사회,공공기관 > 행정기관 > 경찰서",PO3
9452102,천안동남소방서,127.165012207913,36.7999918470101,충남 천안시 동남구 천안대로 580,충남 천안시 동남구 구성동 51-1,http://place.map.kakao.com/9452102,"사회,공공기관 > 행정기관 > 소방서",PO3
26066072,천안동남의용소방대,127.165007710387,36.7999846443559,충남 천안시 동남구 천안대로 580,충남 천안시 동남구 구성동 51-1,http://place.map.kakao.com/26066072,"사회,공공기관 > 행정기관 > 소방서 > 119지역대",PO3
7841125,천안동면우체국,127.34539716622704,36.776457981358654,충남 천안시 동남구 동면 동산1길 25,충남 천안시 동남구 동면 동산리 578-5,http://place.map.kakao.com/7841125,"사회,공공기관 > 행정기관 > 과학기술정보통신부 > 우체국",PO3
17531476,천안백석농공단지 우편취급국,127.110502521169,36.82508963158892,충남 천안시 서북구 백석공단1로 20,충남 천안시 서북구 백석동 555-57,http://place.map.kakao.com/17531476,"사회,공공기관 > 행정기관 > 과학기술정보통신부 > 우체국 > 우편취급국",PO3
150630285,천안봉명동우체국,127.143206128683,36.8019800197806,충남 천안시 동남구 다가7길 51,충남 천안시 동남구 다가동 362-5,http://place.map.kakao.com/150630285,"사회,공공기관 > 행정기관 > 과학기술정보통신부 > 우체국",PO3
7910637,천안북면우체국,127.27265392007061,36.8218817618791,충남 천안시 동남구 북면 위례성로 661-5,충남 천안시 동남구 북면 오곡리 328-8,http://place.map.kakao.com/7910637,"사회,공공기관 > 행정기관 > 과학기술정보통신부 > 우체국",PO3
24061815,천안불당동우체국,127.11408325217846,36.805873684930525,충남 천안시 서북구 봉서산로 66,충남 천안시 서북구 불당동 796-1,http://place.map.kakao.com/24061815,"사회,공공기관 > 행정기관 > 과학기술정보통신부 > 우체국",PO3
17531478,천안산업단지 우편취급국,127.12029541075283,36.854971621111225,충남 천안시 서북구 2공단5로 36,충남 천안시 서북구 차암동 12-3,http://place.map.kakao.com/17531478,"사회,공공기관 > 행정기관 > 과학기술정보통신부 > 우체국 > 우편취급국",PO3
23150616,천안상명대우편취급국,127.177933820578,36.8328276546665,충남 천안시 동남구 상명대길 31,충남 천안시 동남구 안서동 300,http://place.map.kakao.com/23150616,"사회,공공기관 > 행정기관 > 과학기술정보통신부 > 우체국 > 우편취급국",PO3
9095909,천안서부우편취급국,127.1286990982092,36.793026027288526,충남 천안시 동남구 서부대로 281,충남 천안시 동남구 신방동 2-15,http://place.map.kakao.com/9095909,"사회,공공기관 > 행정기관 > 과학기술정보통신부 > 우체국 > 우편취급국",PO3
26011078,천안서북경찰서,127.136770256049,36.857709381802,충남 천안시 서북구 번영로 705,충남 천안시 서북구 업성동 174-1,http://place.map.kakao.com/26011078,"사회,공공기관 > 행정기관 > 경찰서",PO3
17175115,천안서북구보건소 건강관리과,127.11490706902,36.8149876266056,충남 천안시 서북구 번영로 156,충남 천안시 서북구 불당동 234-1,http://place.map.kakao.com/17175115,"의료,건강 > 보건소",PO3
17053742,천안서북소방서,127.116000919238,36.8625037069324,충남 천안시 서북구 직산읍 4산단2길 32,충남 천안시 서북구 직산읍 신갈리 254,http://place.map.kakao.com/17053742,"사회,공공기관 > 행정기관 > 소방서",PO3
713922918,천안성정동우체국,127.13344910753243,36.830151945871876,충남 천안시 서북구 서부대로 706,충남 천안시 서북구 성정동 1116,http://place.map.kakao.com/713922918,"사회,공공기관 > 행정기관 > 과학기술정보통신부 > 우체국",PO3
21659738,천안시광덕면보건지소,127.11090559809429,36.69877232356613,충남 천안시 동남구 광덕면 신흥리3길 33-1,충남 천안시 동남구 광덕면 신흥리 296-1,http://place.map.kakao.com/21659738,"의료,건강 > 보건소 > 보건지소",PO3
1682561170,천안시동남구보건소 정신건강복지센터,127.15142325159925,36.80717556140898,충남 천안시 동남구 버들로 40,충남 천안시 동남구 문화동 112-15,http://place.map.kakao.com/1682561170,"사회,공공기관 > 단체,협회 > 사회복지시설",PO3
7902875,천안시북면보건지소,127.27281828482187,36.8274529242236,충남 천안시 동남구 북면 위례성로 724-2,충남 천안시 동남구 북면 오곡리 399-1,http://place.map.kakao.com/7902875,"의료,건강 > 보건소 > 보건지소",PO3
10557832,천안시성환읍보건지소,127.134377744602,36.9181470010751,충남 천안시 서북구 성환읍 성환13길 7,충남 천안시 서북구 성환읍 성환리 274-1,http://place.map.kakao.com/10557832,"의료,건강 > 보건소 > 보건지소",PO3
8100603,천안시신부문화회관,127.159342867979,36.817531582936,충남 천안시 동남구 신부2길 12,충남 천안시 동남구 신부동 471-1,http://place.map.kakao.com/8100603,"사회,공공기관 > 지방행정기관 > 시,군,구민회관",PO3
8090721,천안시청,127.11391197259194,36.815067881645525,충남 천안시 서북구 번영로 156,충남 천안시 서북구 불당동 234-1,http://place.map.kakao.com/8090721,"사회,공공기관 > 지방행정기관 > 시청",PO3
10085554,천안신계우편취급국,127.202106871029,36.7696643926644,충남 천안시 동남구 목천읍 충절로 813,충남 천안시 동남구 목천읍 신계리 318-14,http://place.map.kakao.com/10085554,"사회,공공기관 > 행정기관 > 과학기술정보통신부 > 우체국 > 우편취급국",PO3
9968195,천안신당동 우편취급국,127.15495200863,36.8499339750435,충남 천안시 서북구 천안대로 1217,충남 천안시 서북구 신당동 251-13,http://place.map.kakao.com/9968195,"사회,공공기관 > 행정기관 > 과학기술정보통신부 > 우체국 > 우편취급국",PO3
1396638872,천안신방동우체국,127.13233573186153,36.772686580980604,충남 천안시 동남구 통정10로 43-8,충남 천안시 동남구 신방동 1908,http://place.map.kakao.com/1396638872,"사회,공공기관 > 행정기관 > 과학기술정보통신부 > 우체국",PO3
11271628,천안신부동우체국,127.1575073326509,36.82205038574075,충남 천안시 동남구 터미널8길 3,충남 천안시 동남구 신부동 624,http://place.map.kakao.com/11271628,"사회,공공기관 > 행정기관 > 과학기술정보통신부 > 우체국",PO3
12466710,천안쌍용2동우체국,127.11833608603698,36.79795145855546,충남 천안시 서북구 월봉로 82,충남 천안시 서북구 쌍용동 1524,http://place.map.kakao.com/12466710,"사회,공공기관 > 행정기관 > 과학기술정보통신부 > 우체국",PO3
14709972,천안쌍용동우체국,127.12662064413026,36.80182762219404,충남 천안시 서북구 쌍용11길 71,충남 천안시 서북구 쌍용동 1285,http://place.map.kakao.com/14709972,"사회,공공기관 > 행정기관 > 과학기술정보통신부 > 우체국",PO3
12466056,천안오룡동우체국,127.14986836476982,36.804576924515125,충남 천안시 동남구 영성로 69,충남 천안시 동남구 오룡동 184,http://place.map.kakao.com/12466056,"사회,공공기관 > 행정기관 > 과학기술정보통신부 > 우체국",PO3
8091098,천안우체국,127.12373926278066,36.82104142891124,충남 천안시 서북구 백석3로 105,충남 천안시 서북구 백석동 898,http://place.map.kakao.com/8091098,"사회,공공기관 > 행정기관 > 과학기술정보통신부 > 우체국",PO3
404853108,천안원성동우편취급국,127.159423382102,36.800147251907,충남 천안시 동남구 고재10길 3,충남 천안시 동남구 원성동 564-9,http://place.map.kakao.com/404853108,"사회,공공기관 > 행정기관 > 과학기술정보통신부 > 우체국 > 우편취급국",PO3
1405090986,청당119안전센터,127.15613580042,36.7858058955407,충남 천안시 동남구 청수14로 91,충남 천안시 동남구 청당동 477,http://place.map.kakao.com/1405090986,"사회,공공기관 > 행정기관 > 소방서 > 119안전센터",PO3
8089053,청룡동행정복지센터,127.15673794425753,36.78606913007452,충남 천안시 동남구 청수14로 99,충남 천안시 동남구 청당동 479,http://place.map.kakao.com/8089053,"사회,공공기관 > 지방행정기관 > 행정복지센터 > 동행정복지센터",PO3
95473753,청수파출소,127.1570273932273,36.7862687956287,충남 천안시 동남구 청수14로 103,충남 천안시 동남구 청당동 480,http://place.map.kakao.com/95473753,"사회,공공기관 > 행정기관 > 경찰서 > 파출소",PO3
2126755141,충청남도119특수대응단,127.20037967580323,36.86767727021504,충남 천안시 서북구 성거읍 송남2길 22,충남 천안시 서북구 성거읍 송남리 48,http://place.map.kakao.com/2126755141,"사회,공공기관 > 행정기관 > 소방서",PO3
8122700,풍세 보건지소,127.11823421834879,36.72212966223366,충남 천안시 동남구 풍세면 상정1길 9,충남 천안시 동남구 풍세면 풍서리 512-2,http://place.map.kakao.com/8122700,"의료,건강 > 보건소 > 보건지소",PO3
1405080043,풍세119안전센터,127.11976394126395,36.72254174884409,충남 천안시 동남구 풍세면 풍세로 89,충남 천안시 동남구 풍세면 풍서리 676-57,http://place.map.kakao.com/1405080043,"사회,공공기관 > 행정기관 > 소방서 > 119안전센터",PO3
8138406,풍세면행정복지센터,127.118735814079,36.7222012528681,충남 천안시 동남구 풍세면 상정1길 3,충남 천안시 동남구 풍세면 풍서리 384-1,http://place.map.kakao.com/8138406,"사회,공공기관 > 지방행정기관 > 행정복지센터 > 면행정복지센터",PO3
8609851,풍세우체국,127.11932304316234,36.722634106285525,충남 천안시 동남구 풍세면 풍년길 50,충남 천안시 동남구 풍세면 풍서리 414-2,http://place.map.kakao.com/8609851,"사회,공공기관 > 행정기관 > 과학기술정보통신부 > 우체국",PO3
11224969,풍세치안센터,127.119525927085,36.7206433195387,충남 천안시 동남구 풍세면 풍년길 27,충남 천안시 동남구 풍세면 풍서리 379-1,http://place.map.kakao.com/11224969,"사회,공공기관 > 행정기관 > 경찰서 > 치안센터",PO3
12158595,행정보건진료소,127.157025684275,36.6859316188184,충남 천안시 동남구 광덕면 차령고개로 1017,충남 천안시 동남구 광덕면 행정리 121,http://place.map.kakao.com/12158595,"의료,건강 > 보건소 > 보건진료소",PO3
13538406,화성보건진료소,127.260861312802,36.752389221587,충남 천안시 동남구 성남면 화성3길 21-9,충남 천안시 동남구 성남면 화성리 산 20-2,http://place.map.kakao.com/13538406,"의료,건강 > 보건소 > 보건진료소",PO3
263595319,뮤지엄호두,127.05659707341141,36.67744924755192,충남 천안시 동남구 광덕면 광풍로 315,충남 천안시 동남구 광덕면 광덕리 174,http://place.map.kakao.com/263595319,"문화,예술 > 문화시설 > 미술관",CT1
1115685223,화이트블럭 천안창작촌,127.057225859256,36.6775219386888,충남 천안시 동남구 광덕면 광풍로 315,충남 천안시 동남구 광덕면 광덕리 174,http://place.map.kakao.com/1115685223,"문화,예술 > 문화시설 > 미술관",CT1
608523062,한뼘미술관,127.1307312932004,36.774415794499326,충남 천안시 동남구 통정4로 7,충남 천안시 동남구 신방동 1521,http://place.map.kakao.com/608523062,"문화,예술 > 문화시설 > 미술관",CT1
26010605,홈플러스소극장 천안신방점,127.120547807494,36.7871448882703,충남 천안시 동남구 신촌1길 23,충남 천안시 동남구 신방동 784-9,http://place.map.kakao.com/26010605,"문화,예술 > 문화시설 > 공연장,연극극장",CT1
161722529,메종르샤,127.129327160053,36.7720645147749,충남 천안시 동남구 통정8로 5-27,충남 천안시 동남구 신방동 1400,http://place.map.kakao.com/161722529,"문화,예술 > 문화시설 > 공연장,연극극장",CT1
208027163,올포원아트홀,127.116626504137,36.7914876608837,충남 천안시 서북구 월봉7길 52,충남 천안시 서북구 쌍용동 1661,http://place.map.kakao.com/208027163,"문화,예술 > 문화시설 > 공연장,연극극장",CT1
19305102,CGV 천안펜타포트,127.10176371662668,36.79855251548843,충남 천안시 서북구 공원로 196,충남 천안시 서북구 불당동 1289,http://place.map.kakao.com/19305102,"문화,예술 > 영화,영상 > 영화관 > CGV",CT1
957917398,CGV 천안시청(휴업중),127.11009606450557,36.81912646944916,충남 천안시 서북구 번영로 201,충남 천안시 서북구 불당동 1485,http://place.map.kakao.com/957917398,"문화,예술 > 영화,영상 > 영화관 > CGV",CT1
1125968183,롯데시네마 천안불당,127.108283356154,36.8132889418771,충남 천안시 서북구 불당21로 67-8,충남 천안시 서북구 불당동 1537-2,http://place.map.kakao.com/1125968183,"문화,예술 > 영화,영상 > 영화관 > 롯데시네마",CT1
8100605,천안시청 봉서홀,127.11305507708364,36.814625353229076,충남 천안시 서북구 번영로 156,충남 천안시 서북구 불당동 234-1,http://place.map.kakao.com/8100605,"문화,예술 > 문화시설 > 공연장,연극극장",CT1
1110218755,아우내아트홀,127.109332202022,36.8100367753153,충남 천안시 서북구 검은들3길 52,충남 천안시 서북구 불당동 730,http://place.map.kakao.com/1110218755,"문화,예술 > 문화시설 > 공연장,연극극장",CT1
108102432,천안성성호수공원 미디어아트영상관,127.128460883497,36.8476064612841,충남 천안시 서북구 성성2길 95,충남 천안시 서북구 성성동 290-10,http://place.map.kakao.com/108102432,"문화,예술 > 문화시설 > 전시관",CT1
2071297878,컨벤션센터 글로리아홀,127.121150086762,36.8281087856384,충남 천안시 서북구 한들2로 34-23,충남 천안시 서북구 백석동 101-15,http://place.map.kakao.com/2071297878,"문화,예술 > 문화시설 > 공연장,연극극장",CT1
820966326,세라갤러리,127.119644441113,36.8365942357129,충남 천안시 서북구 한들1로 157,충남 천안시 서북구 백석동 1059,http://place.map.kakao.com/820966326,"문화,예술 > 문화시설 > 미술관",CT1
1530583848,뮤지엄 흥,127.12669769350842,36.803705457054065,충남 천안시 서북구 서부대로 401-12,충남 천안시 서북구 쌍용동 255-4,http://place.map.kakao.com/1530583848,"문화,예술 > 문화시설 > 전시관",CT1
1568087599,레이브,127.135244635648,36.8319214942122,충남 천안시 서북구 원두정7길 12,충남 천안시 서북구 두정동 885,http://place.map.kakao.com/1568087599,"문화,예술 > 문화시설 > 공연장,연극극장",CT1
10271020,다림헌,127.141369029977,36.8144977450853,충남 천안시 서북구 성정12길 3,충남 천안시 서북구 성정동 731-2,http://place.map.kakao.com/10271020,"문화,예술 > 문화시설 > 문화원",CT1
1918668657,갤러리현,127.139018559925,36.8037953214263,충남 천안시 동남구 봉정로 17-1,충남 천안시 동남구 봉명동 40-16,http://place.map.kakao.com/1918668657,"문화,예술 > 문화시설 > 미술관",CT1
577827763,단예동 아트센터,127.13766287378823,36.83770472554209,충남 천안시 서북구 부성8길 38,충남 천안시 서북구 두정동 1041,http://place.map.kakao.com/577827763,"문화,예술 > 문화시설 > 전시관",CT1
1668804695,불당천변공원 야외무대,127.109025041474,36.8052251236081,,충남 천안시 서북구 불당동 859,http://place.map.kakao.com/1668804695,"문화,예술 > 문화시설 > 공연장,연극극장",CT1
27349703,트릭아트홀,127.113186053032,36.8152848411826,충남 천안시 서북구 번영로 156,충남 천안시 서북구 불당동 234-1,http://place.map.kakao.com/27349703,"문화,예술 > 문화시설 > 전시관",CT1
1722684411,갤러리아장,127.120068651425,36.8017253825658,충남 천안시 서북구 쌍용8길 6,충남 천안시 서북구 쌍용동 2006,http://place.map.kakao.com/1722684411,"문화,예술 > 문화시설 > 미술관",CT1
18324101,천안드림홀,127.134078854086,36.8370843546443,충남 천안시 서북구 부성7길 3,충남 천안시 서북구 두정동 1063,http://place.map.kakao.com/18324101,"문화,예술 > 문화시설 > 공연장,연극극장",CT1
25706415,갤러리아 백화점 아트홀 G 센터시티점,127.104679609315,36.8004603433161,충남 천안시 서북구 공원로 227,충남 천안시 서북구 불당동 1299,http://place.map.kakao.com/25706415,"문화,예술 > 문화시설 > 공연장,연극극장",CT1
1206589425,Cmusic공연장,127.139863813616,36.8372434935926,충남 천안시 서북구 두정중10길 8,충남 천안시 서북구 두정동 1171,http://place.map.kakao.com/1206589425,"문화,예술 > 문화시설 > 공연장,연극극장",CT1
17552524,천안시 성환문화회관,127.136662149546,36.9128423548467,충남 천안시 서북구 성환읍 성진로 15,충남 천안시 서북구 성환읍 성월리 79,http://place.map.kakao.com/17552524,"문화,예술 > 문화시설 > 공연장,연극극장",CT1
7952673,천안시서북구문화원,127.128758008966,36.9157563139261,충남 천안시 서북구 성환읍 성환3로 7-11,충남 천안시 서북구 성환읍 성환리 449-66,http://place.map.kakao.com/7952673,"문화,예술 > 문화시설 > 문화원",CT1
740650832,유리조형박물관,127.144384231572,36.9077204065089,충남 천안시 서북구 성환읍 대학로 91,충남 천안시 서북구 성환읍 매주리 21,http://place.map.kakao.com/740650832,"문화,예술 > 문화시설 > 박물관",CT1
24053146,통일문화회관,127.127157786179,36.919841796791,충남 천안시 서북구 성환읍 성환14길 23,충남 천안시 서북구 성환읍 성환리 449-858,http://place.map.kakao.com/24053146,"문화,예술 > 문화시설 > 공연장,연극극장",CT1
173097187,롯데시네마 천안청당점,127.156094452986,36.7830953982837,충남 천안시 동남구 청수11로 35,충남 천안시 동남구 청당동 547,http://place.map.kakao.com/173097187,"문화,예술 > 영화,영상 > 영화관 > 롯데시네마",CT1
8539185,천안박물관,127.16334367496806,36.786760408169656,충남 천안시 동남구 천안삼거리길 27,충남 천안시 동남구 삼룡동 261-10,http://place.map.kakao.com/8539185,"문화,예술 > 문화시설 > 박물관",CT1
23490999,천안흥타령관,127.165562553075,36.7849713328683,충남 천안시 동남구 천안대로 412,충남 천안시 동남구 삼룡동 320-10,http://place.map.kakao.com/23490999,"문화,예술 > 문화시설 > 전시관",CT1
1633769953,삼거리갤러리,127.165744837912,36.7843006501646,충남 천안시 동남구 천안대로 400,충남 천안시 동남구 삼룡동 320-8,http://place.map.kakao.com/1633769953,"문화,예술 > 문화시설 > 미술관",CT1
1614632048,천안삼거리휴게소 독립미술관,127.173481846688,36.7879057877941,충남 천안시 동남구 쉼1길 42,충남 천안시 동남구 구성동 155-1,http://place.map.kakao.com/1614632048,"문화,예술 > 문화시설 > 미술관",CT1
17014403,천안삼거리공원 공연장,127.16664617293,36.784587747401,충남 천안시 동남구 충절로 410,충남 천안시 동남구 삼룡동 396-26,http://place.map.kakao.com/17014403,"문화,예술 > 문화시설 > 공연장,연극극장",CT1
23974405,고신역사기념관,127.180743838289,36.7769040852611,충남 천안시 동남구 충절로 535-31,충남 천안시 동남구 삼룡동 40-1,http://place.map.kakao.com/23974405,"문화,예술 > 문화시설 > 기념관",CT1
584840959,독립미술관,127.17352711613333,36.78761105765524,충남 천안시 동남구 쉼1길 42,충남 천안시 동남구 삼룡동 173-1,http://place.map.kakao.com/584840959,"문화,예술 > 문화시설 > 미술관",CT1
17848078,한민족기념관,127.19463356503,36.7926408469308,충남 천안시 동남구 목천읍 교천지산길 284-11,충남 천안시 동남구 목천읍 지산리 167-1,http://place.map.kakao.com/17848078,"문화,예술 > 문화시설 > 기념관",CT1
10818992,CGV 천안,127.1483828113485,36.80765878466955,충남 천안시 동남구 명동길 47,충남 천안시 동남구 대흥동 102-10,http://place.map.kakao.com/10818992,"문화,예술 > 영화,영상 > 영화관 > CGV",CT1
11121372,메가박스 천안,127.14792607304153,36.83236775991623,충남 천안시 서북구 1공단1길 52,충남 천안시 서북구 두정동 68-16,http://place.map.kakao.com/11121372,"문화,예술 > 영화,영상 > 영화관 > 메가박스",CT1
208530803,CGV 천안터미널,127.15529060596018,36.81942296501052,충남 천안시 동남구 만남로 43,충남 천안시 동남구 신부동 354-1,http://place.map.kakao.com/208530803,"문화,예술 > 영화,영상 > 영화관 > CGV",CT1
27453956,충청남도교육청학생교육문화원,127.156923747626,36.8096050337963,충남 천안시 동남구 옛농고1길 41,충남 천안시 동남구 원성동 191-3,http://place.map.kakao.com/27453956,"문화,예술 > 문화시설 > 문화원",CT1
14935784,아라리오갤러리 천안,127.15780895085,36.8193754952815,충남 천안시 동남구 만남로 43,충남 천안시 동남구 신부동 97-3,http://place.map.kakao.com/14935784,"문화,예술 > 문화시설 > 미술관",CT1
11785998,리각미술관,127.185998405993,36.8208413974366,충남 천안시 동남구 태조산길 245,충남 천안시 동남구 유량동 4-1,http://place.map.kakao.com/11785998,"문화,예술 > 문화시설 > 미술관",CT1
8028146,우정박물관,127.188801120288,36.8138083320125,충남 천안시 동남구 양지말1길 11-14,충남 천안시 동남구 유량동 60-1,http://place.map.kakao.com/8028146,"문화,예술 > 문화시설 > 박물관",CT1
58394716,인디플러스 천안점,127.152273245965,36.8085910221536,충남 천안시 동남구 중앙로 111,충남 천안시 동남구 원성동 261-18,http://place.map.kakao.com/58394716,"문화,예술 > 영화,영상 > 영화관",CT1
921461064,천안인생극장,127.152015117528,36.8072649174365,충남 천안시 동남구 버들로 41,충남 천안시 동남구 문화동 99-1,http://place.map.kakao.com/921461064,"문화,예술 > 영화,영상 > 영화관",CT1
2020679612,JB소극장,127.184435506797,36.8290511206061,충남 천안시 동남구 각원사길 114-8,충남 천안시 동남구 안서동 273,http://place.map.kakao.com/2020679612,"문화,예술 > 문화시설 > 공연장,연극극장",CT1
1855937200,천안지역사전시관,127.149091043554,36.8001408281004,충남 천안시 동남구 사직2길 22,충남 천안시 동남구 사직동 284-5,http://place.map.kakao.com/1855937200,"문화,예술 > 문화시설 > 전시관",CT1
2132695170,아트센터소극장,127.15106119725576,36.81682510865787,충남 천안시 동남구 대흥로 328,충남 천안시 동남구 성황동 10-8,http://place.map.kakao.com/2132695170,"문화,예술 > 문화시설 > 공연장,연극극장",CT1
23972309,시민문화회관,127.159271243165,36.8175821410009,충남 천안시 동남구 신부2길 12,충남 천안시 동남구 신부동 471-1,http://place.map.kakao.com/23972309,"문화,예술 > 문화시설 > 공연장,연극극장",CT1
636426480,충청남도학생교육문화원 대공연장,127.156914752956,36.8095906278984,충남 천안시 동남구 옛농고1길 41,충남 천안시 동남구 원성동 191-3,http://place.map.kakao.com/636426480,"문화,예술 > 문화시설 > 공연장,연극극장",CT1
1877163229,산사현대시100년관,127.182436598831,36.8374353955584,충남 천안시 동남구 백석대학로 1-15,충남 천안시 동남구 안서동 393,http://place.map.kakao.com/1877163229,"문화,예술 > 문화시설 > 박물관",CT1
1669521031,백석대학교 예술대학동 콘서트홀,127.187703340795,36.8388040866529,충남 천안시 동남구 백석대학로 1-13,충남 천안시 동남구 안서동 115,http://place.map.kakao.com/1669521031,"문화,예술 > 문화시설 > 공연장,연극극장",CT1
1170209511,천안문학관,127.148561396624,36.8113486092026,충남 천안시 동남구 대흥로 261,충남 천안시 동남구 대흥동 42-5,http://place.map.kakao.com/1170209511,"문화,예술 > 문화시설 > 전시관",CT1
10385380,백석대학교 기독교박물관,127.182814196724,36.837351012704,충남 천안시 동남구 백석대학로 1-15,충남 천안시 동남구 안서동 393,http://place.map.kakao.com/10385380,"문화,예술 > 문화시설 > 박물관",CT1
23977812,이봉주기념관,127.1757661314,36.8750854197501,충남 천안시 서북구 성거읍 명우리길 42-1,충남 천안시 서북구 성거읍 소우리 3-6,http://place.map.kakao.com/23977812,"문화,예술 > 문화시설 > 기념관",CT1
17807562,복권박물관,127.203662875959,36.8480222507066,충남 천안시 동남구 문암로 283,충남 천안시 동남구 안서동 3,http://place.map.kakao.com/17807562,"문화,예술 > 문화시설 > 박물관",CT1
1902898285,충청남도학생교육문화원 소공연장,127.156941692835,36.8096122189991,충남 천안시 동남구 옛농고1길 41,충남 천안시 동남구 원성동 191-3,http://place.map.kakao.com/1902898285,"문화,예술 > 문화시설 > 공연장,연극극장",CT1
1538743079,천안아리랑전수관,127.195415867506,36.800681086096,충남 천안시 동남구 목천읍 교천지산길 387,충남 천안시 동남구 목천읍 지산리 37,http://place.map.kakao.com/1538743079,"문화,예술 > 문화시설 > 전시관",CT1
146552468,소중애문학관,127.148472968905,36.8114036873581,충남 천안시 동남구 대흥로 261,충남 천안시 동남구 대흥동 42-5,http://place.map.kakao.com/146552468,"문화,예술 > 문화시설 > 전시관",CT1
620710783,상명대학교 천안캠퍼스 노천극장,127.178911712907,36.8329919908068,충남 천안시 동남구 상명대길 31,충남 천안시 동남구 안서동 300,http://place.map.kakao.com/620710783,"문화,예술 > 문화시설 > 공연장,연극극장",CT1
26351931,충남학생교육문화원 예술교육관,127.15661976352924,36.809464861296355,충남 천안시 동남구 옛농고1길 41,충남 천안시 동남구 원성동 191-3,http://place.map.kakao.com/26351931,"문화,예술 > 문화시설 > 문화원",CT1
11112238,아리소극장,127.158455481783,36.8198360032504,충남 천안시 동남구 터미널2로 10,충남 천안시 동남구 신부동 817,http://place.map.kakao.com/11112238,"문화,예술 > 문화시설 > 공연장,연극극장",CT1
23969927,유림문화원,127.171890275769,36.8191865659895,충남 천안시 동남구 향교1길 85-14,충남 천안시 동남구 유량동 207-2,http://place.map.kakao.com/23969927,"문화,예술 > 문화시설 > 문화원",CT1
17567576,단국대학교 노천극장,127.169990359197,36.8378602412818,충남 천안시 동남구 단대로 119,충남 천안시 동남구 안서동 522,http://place.map.kakao.com/17567576,"문화,예술 > 문화시설 > 공연장,연극극장",CT1
629282281,백석대학교 시화미술관,127.182446557817,36.837380412804,충남 천안시 동남구 백석대학로 1-15,충남 천안시 동남구 안서동 393,http://place.map.kakao.com/629282281,"문화,예술 > 문화시설 > 미술관",CT1
964540745,백석대학교 노천극장,127.18624944365,36.8402526473908,,충남 천안시 동남구 안서동 115,http://place.map.kakao.com/964540745,"문화,예술 > 문화시설 > 공연장,연극극장",CT1
13603493,망향열린미술관,127.18074622366098,36.85514062581872,충남 천안시 서북구 성거읍 돌다리길 23-37,충남 천안시 서북구 성거읍 요방리 121,http://place.map.kakao.com/13603493,"문화,예술 > 문화시설 > 미술관",CT1
2096226281,굴뚝라이브공연장,127.150276139731,36.8068102642749,충남 천안시 동남구 옛시청길 29,충남 천안시 동남구 문화동 179,http://place.map.kakao.com/2096226281,"문화,예술 > 문화시설 > 공연장,연극극장",CT1
406087487,백석 역사관,127.182475820959,36.8374290276259,충남 천안시 동남구 백석대학로 1-15,충남 천안시 동남구 안서동 393,http://place.map.kakao.com/406087487,"문화,예술 > 문화시설 > 전시관",CT1
156305716,백석문화대학교 보리생명미술관,127.182437640706,36.8374020530442,충남 천안시 동남구 백석대학로 1-15,충남 천안시 동남구 안서동 393,http://place.map.kakao.com/156305716,"문화,예술 > 문화시설 > 미술관",CT1
26055737,그림만드는미술관,127.185056985635,36.8543748136221,충남 천안시 서북구 성거읍 망향로 372-15,충남 천안시 서북구 성거읍 요방리 100-8,http://place.map.kakao.com/26055737,"문화,예술 > 문화시설 > 미술관",CT1
26796272,두루두루스페이스,127.1542806049,36.8193440809952,충남 천안시 동남구 만남로 43,충남 천안시 동남구 신부동 363-2,http://place.map.kakao.com/26796272,"문화,예술 > 문화시설 > 전시관",CT1
885096367,갤러리그림앤,127.152667094049,36.8173096568538,충남 천안시 동남구 중앙로 213-6,충남 천안시 동남구 신부동 371-55,http://place.map.kakao.com/885096367,"문화,예술 > 문화시설 > 전시관",CT1
17566164,단국대학교 천안캠퍼스 야외공연장,127.169853623382,36.8368620112553,충남 천안시 동남구 단대로 119,충남 천안시 동남구 안서동 522,http://place.map.kakao.com/17566164,"문화,예술 > 문화시설 > 공연장,연극극장",CT1
7834305,독립기념관,127.22280833066404,36.78366949071773,충남 천안시 동남구 목천읍 독립기념관로 1,충남 천안시 동남구 목천읍 남화리 230-1,http://place.map.kakao.com/7834305,"문화,예술 > 문화시설 > 기념관",CT1
17806516,천안예술의전당,127.22541608115678,36.75603097336238,충남 천안시 동남구 성남면 종합휴양지로 185,충남 천안시 동남구 성남면 용원리 710,http://place.map.kakao.com/17806516,"문화,예술 > 문화시설 > 공연장,연극극장",CT1
1411453355,천안시립미술관,127.22621703746373,36.756495331040746,충남 천안시 동남구 성남면 종합휴양지로 185,충남 천안시 동남구 성남면 용원리 710,http://place.map.kakao.com/1411453355,"문화,예술 > 문화시설 > 미술관",CT1
18377438,천안예술의전당 대공연장,127.22587996959,36.7561193042936,충남 천안시 동남구 성남면 종합휴양지로 185,충남 천안시 동남구 성남면 용원리 710,http://place.map.kakao.com/18377438,"문화,예술 > 문화시설 > 공연장,연극극장",CT1
23970046,석오이동녕기념관,127.238579067318,36.7907153430223,충남 천안시 동남구 목천읍 동리4길 35,충남 천안시 동남구 목천읍 동리 90-1,http://place.map.kakao.com/23970046,"문화,예술 > 문화시설 > 기념관",CT1
27286681,천안예술의전당 소공연장,127.225691661987,36.7560619900925,충남 천안시 동남구 성남면 종합휴양지로 185,충남 천안시 동남구 성남면 용원리 710,http://place.map.kakao.com/27286681,"문화,예술 > 문화시설 > 공연장,연극극장",CT1
17527237,어린이미술체험관 단추,127.274198787735,36.7178643738476,충남 천안시 동남구 수신면 해정3길 26,충남 천안시 동남구 수신면 해정리 315-6,http://place.map.kakao.com/17527237,"문화,예술 > 문화시설 > 미술관",CT1
17572526,독립기념관 추모의자리,127.218494256217,36.7864754493121,,충남 천안시 동남구 목천읍 남화리 산 5-1,http://place.map.kakao.com/17572526,"문화,예술 > 문화시설 > 기념관",CT1
494071864,독립기념관 고객쉼터,127.229474605841,36.7786132850378,충남 천안시 동남구 목천읍 독립기념관로 1,충남 천안시 동남구 목천읍 남화리 230-1,http://place.map.kakao.com/494071864,"문화,예술 > 문화시설 > 기념관",CT1
1468406384,광명책방,127.239610206112,36.7904798823535,충남 천안시 동남구 목천읍 동리4길 36,충남 천안시 동남구 목천읍 동리 79-2,http://place.map.kakao.com/1468406384,"문화,예술 > 문화시설 > 기념관",CT1
1860325461,유림당,127.268273042161,36.8380683711765,충남 천안시 동남구 북면 위례성로 865-11,충남 천안시 동남구 북면 사담리 208-38,http://place.map.kakao.com/1860325461,"문화,예술 > 문화시설 > 미술관",CT1
24870795,천안홍대용과학관,127.29559853754,36.7396202645372,충남 천안시 동남구 수신면 장산서길 113,충남 천안시 동남구 수신면 장산리 646-9,http://place.map.kakao.com/24870795,"문화,예술 > 문화시설 > 과학관",CT1
8036605,유관순열사기념관,127.308416611664,36.7598808843551,충남 천안시 동남구 병천면 유관순길 38,충남 천안시 동남구 병천면 탑원리 252,http://place.map.kakao.com/8036605,"문화,예술 > 문화시설 > 기념관",CT1
8414514,천안시동남구문화원,127.298053511306,36.7606534183509,충남 천안시 동남구 병천면 아우내순대길 29,충남 천안시 동남구 병천면 병천리 172,http://place.map.kakao.com/8414514,"문화,예술 > 문화시설 > 문화원",CT1
1738141717,1923역사관,127.291274999416,36.7818103359672,충남 천안시 동남구 병천면 병천5길 32-35,충남 천안시 동남구 병천면 병천리 626-1,http://place.map.kakao.com/1738141717,"문화,예술 > 문화시설 > 전시관",CT1
1672710300,아우내 배움터,127.30795940776,36.7603731763218,충남 천안시 동남구 병천면 유관순길 38,충남 천안시 동남구 병천면 탑원리 252,http://place.map.kakao.com/1672710300,"문화,예술 > 문화시설 > 전시관",CT1
312093030,해양경찰연구센터 기름시료전시실,127.292794378474,36.7659884613621,충남 천안시 동남구 병천면 충절로 1687,충남 천안시 동남구 병천면 병천리 331,http://place.map.kakao.com/312093030,"문화,예술 > 문화시설 > 전시관",CT1
custom_univ_yeonam,연암대학,127.15545,36.9469889,충남 천안시 서북구 성환읍 연암로 313,충남 천안시 서북구 성환읍 수향리 72-3,https://place.map.kakao.com/8088750,학교 > 대학교,SC4
